[{"OBJECT_NAME":"STARLINK-1046","OBJECT_ID":"2019-074AQ","EPOCH":"2026-03-09T14:38:51.565056","MEAN_MOTION":15.43628463,"ECCENTRICITY":0.0004661,"INCLINATION":53.0538,"RA_OF_ASC_NODE":211.228,"ARG_OF_PERICENTER":174.7862,"MEAN_ANOMALY":185.3192,"EPHEMERIS_TYPE":0,"CLASSIFICATION_TYPE":"U","NORAD_CAT_ID":44751,"ELEMENT_SET_NO":999,"REV_AT_EPOCH":34840,"BSTAR":0.00054883,"MEAN_MOTION_DOT":0.00024762,"MEAN_MOTION_DDOT":0},{"OBJECT_NAME":"SITRO-AIS 38","OBJECT_ID":"2024-199BD","EPOCH":"2026-03-09T22:34:15.325824","MEAN_MOTION":15.44670327,"ECCENTRICITY":0.00093221,"INCLINATION":97.3106,"RA_OF_ASC_NODE":302.3939,"ARG_OF_PERICENTER":297.2453,"MEAN_ANOMALY":62.7846,"EPHEMERIS_TYPE":0,"CLASSIFICATION_TYPE":"U","NORAD_CAT_ID":61786,"ELEMENT_SET_NO":999,"REV_AT_EPOCH":11897,"BSTAR":0.00043805891,"MEAN_MOTION_DOT":0.00020392,"MEAN_MOTION_DDOT":0}]
